[{"OBJECT_NAME":"THEOS","OBJECT_ID":"2008-049A","EPOCH":"2026-03-09T23:28:13.334304","MEAN_MOTION":14.20116597,"ECCENTRICITY":0.00010425,"INCLINATION":98.5696,"RA_OF_ASC_NODE":129.4305,"ARG_OF_PERICENTER":90.3146,"MEAN_ANOMALY":269.8151,"EPHEMERIS_TYPE":0,"CLASSIFICATION_TYPE":"U","NORAD_CAT_ID":33396,"ELEMENT_SET_NO":999,"REV_AT_EPOCH":90388,"BSTAR":-7.5504934e-5,"MEAN_MOTION_DOT":-2.03e-6,"MEAN_MOTION_DDOT":0},{"OBJECT_NAME":"NOAA 16 DEB","OBJECT_ID":"2000-055AT","EPOCH":"2026-03-09T05:07:48.312768","MEAN_MOTION":14.23425558,"ECCENTRICITY":0.0017169,"INCLINATION":98.6933,"RA_OF_ASC_NODE":155.9843,"ARG_OF_PERICENTER":150.3336,"MEAN_ANOMALY":209.882,"EPHEMERIS_TYPE":0,"CLASSIFICATION_TYPE":"U","NORAD_CAT_ID":41084,"ELEMENT_SET_NO":999,"REV_AT_EPOCH":53194,"BSTAR":0.00076816114,"MEAN_MOTION_DOT":1.703e-5,"MEAN_MOTION_DDOT":0}]
